COSMOS 1892             
1 18421U 87088A   25299.87569458  .00193286  12024-4  66938-3 0  9993
2 18421  82.4698  96.3854 0004592 331.3543  28.7476 15.89373996 83827
SL-14 R/B               
1 18749U 88001B   25300.16255894  .00000662  00000+0  74062-4 0  9992
2 18749  82.5118 320.9666 0017112 324.1618  35.8449 14.85349795 22209
COSMOS 1933             
1 18958U 88020A   25300.17909353  .00005932  00000+0  30253-3 0  9990
2 18958  82.5166  22.8577 0003138 315.2884  44.8096 15.16563976 29986
SL-3 R/B                
1 19046U 88032B   25300.20340477  .00006872  00000+0  33816-3 0  9994
2 19046  97.5042 279.2812 0026498 343.5218  16.5152 15.18013361 31840
SL-16 R/B               
1 19120U 88039B   25300.17024432  .00000149  00000+0  93048-4 0  9995
2 19120  71.0164 350.8685 0022147 191.0453 169.0189 14.19585405939432
COSMOS 1953             
1 19210U 88050A   25300.23003347  .00006371  00000+0  24480-3 0  9993
2 19210  82.5067 292.2305 0010384 226.5463 133.4912 15.26193771 17418
SL-8 R/B                
1 19257U 88053B   25300.16495955  .00000383  00000+0  13291-3 0  9994
2 19257  74.0493 358.5604 0020732 215.4721 207.2978 14.38817452957391
COSMOS 1975             
1 19573U 88093A   25300.15659638  .00011925  00000+0  47114-3 0  9993
2 19573  82.5201 251.4198 0009384 286.5228  73.4979 15.25340745999026
SL-14 R/B               
1 19574U 88093B   25300.17425108  .00000643  00000+0  71424-4 0  9996
2 19574  82.5321 167.3635 0022072 117.8075   3.1101 14.85480909981217
SL-16 R/B               
1 19650U 88102B   25300.12124387  .00000342  00000+0  19699-3 0  9993
2 19650  70.9992  72.5286 0015599 221.0087 138.9864 14.16127438907987
INTERCOSMOS 24          
1 20261U 89080A   25299.94642547  .00000776  00000+0  23080-3 0  9999
2 20261  82.6105 191.3791 1187530 243.1079 104.3917 12.59342587649962
SL-14 R/B               
1 20262U 89080C   25300.17653816  .00000292  00000+0  78894-4 0  9996
2 20262  82.5903 258.9040 1231457 129.9351 241.6687 12.50367775643462
