CCSDS_OMM_VERS = 2.0
CREATION_DATE  = 
ORIGINATOR     = 

OBJECT_NAME    = COSMOS 1892
OBJECT_ID      = 1987-088A
CENTER_NAME    = EARTH
REF_FRAME      = TEME
TIME_SYSTEM    = UTC
MEAN_ELEMENT_THEORY = SGP/SGP4

EPOCH          = 2025-10-26T21:01:00.011712
MEAN_MOTION    = 15.89373996
ECCENTRICITY   = .0004592
INCLINATION    = 82.4698
RA_OF_ASC_NODE = 96.3854
ARG_OF_PERICENTER = 331.3543
MEAN_ANOMALY   = 28.7476

EPHEMERIS_TYPE = 0
CLASSIFICATION_TYPE = U
NORAD_CAT_ID   = 18421
ELEMENT_SET_NO = 999
REV_AT_EPOCH   = 8382
BSTAR          = .66938E-3
MEAN_MOTION_DOT = .193286E-2
MEAN_MOTION_DDOT = .12024E-4

CCSDS_OMM_VERS = 2.0
CREATION_DATE  = 
ORIGINATOR     = 

OBJECT_NAME    = SL-14 R/B
OBJECT_ID      = 1988-001B
CENTER_NAME    = EARTH
REF_FRAME      = TEME
TIME_SYSTEM    = UTC
MEAN_ELEMENT_THEORY = SGP/SGP4

EPOCH          = 2025-10-27T03:54:05.092416
MEAN_MOTION    = 14.85349795
ECCENTRICITY   = .0017112
INCLINATION    = 82.5118
RA_OF_ASC_NODE = 320.9666
ARG_OF_PERICENTER = 324.1618
MEAN_ANOMALY   = 35.8449

EPHEMERIS_TYPE = 0
CLASSIFICATION_TYPE = U
NORAD_CAT_ID   = 18749
ELEMENT_SET_NO = 999
REV_AT_EPOCH   = 2220
BSTAR          = .74062E-4
MEAN_MOTION_DOT = .662E-5
MEAN_MOTION_DDOT = 0

CCSDS_OMM_VERS = 2.0
CREATION_DATE  = 
ORIGINATOR     = 

OBJECT_NAME    = COSMOS 1933
OBJECT_ID      = 1988-020A
CENTER_NAME    = EARTH
REF_FRAME      = TEME
TIME_SYSTEM    = UTC
MEAN_ELEMENT_THEORY = SGP/SGP4

EPOCH          = 2025-10-27T04:17:53.680992
MEAN_MOTION    = 15.16563976
ECCENTRICITY   = .0003138
INCLINATION    = 82.5166
RA_OF_ASC_NODE = 22.8577
ARG_OF_PERICENTER = 315.2884
MEAN_ANOMALY   = 44.8096

EPHEMERIS_TYPE = 0
CLASSIFICATION_TYPE = U
NORAD_CAT_ID   = 18958
ELEMENT_SET_NO = 999
REV_AT_EPOCH   = 2998
BSTAR          = .30253E-3
MEAN_MOTION_DOT = .5932E-4
MEAN_MOTION_DDOT = 0

CCSDS_OMM_VERS = 2.0
CREATION_DATE  = 
ORIGINATOR     = 

OBJECT_NAME    = SL-3 R/B
OBJECT_ID      = 1988-032B
CENTER_NAME    = EARTH
REF_FRAME      = TEME
TIME_SYSTEM    = UTC
MEAN_ELEMENT_THEORY = SGP/SGP4

EPOCH          = 2025-10-27T04:52:54.172128
MEAN_MOTION    = 15.18013361
ECCENTRICITY   = .0026498
INCLINATION    = 97.5042
RA_OF_ASC_NODE = 279.2812
ARG_OF_PERICENTER = 343.5218
MEAN_ANOMALY   = 16.5152

EPHEMERIS_TYPE = 0
CLASSIFICATION_TYPE = U
NORAD_CAT_ID   = 19046
ELEMENT_SET_NO = 999
REV_AT_EPOCH   = 3184
BSTAR          = .33816E-3
MEAN_MOTION_DOT = .6872E-4
MEAN_MOTION_DDOT = 0

CCSDS_OMM_VERS = 2.0
CREATION_DATE  = 
ORIGINATOR     = 

OBJECT_NAME    = SL-16 R/B
OBJECT_ID      = 1988-039B
CENTER_NAME    = EARTH
REF_FRAME      = TEME
TIME_SYSTEM    = UTC
MEAN_ELEMENT_THEORY = SGP/SGP4

EPOCH          = 2025-10-27T04:05:09.109248
MEAN_MOTION    = 14.19585405
ECCENTRICITY   = .0022147
INCLINATION    = 71.0164
RA_OF_ASC_NODE = 350.8685
ARG_OF_PERICENTER = 191.0453
MEAN_ANOMALY   = 169.0189

EPHEMERIS_TYPE = 0
CLASSIFICATION_TYPE = U
NORAD_CAT_ID   = 19120
ELEMENT_SET_NO = 999
REV_AT_EPOCH   = 93943
BSTAR          = .93048E-4
MEAN_MOTION_DOT = .149E-5
MEAN_MOTION_DDOT = 0

CCSDS_OMM_VERS = 2.0
CREATION_DATE  = 
ORIGINATOR     = 

OBJECT_NAME    = COSMOS 1953
OBJECT_ID      = 1988-050A
CENTER_NAME    = EARTH
REF_FRAME      = TEME
TIME_SYSTEM    = UTC
MEAN_ELEMENT_THEORY = SGP/SGP4

EPOCH          = 2025-10-27T05:31:14.891808
MEAN_MOTION    = 15.26193771
ECCENTRICITY   = .0010384
INCLINATION    = 82.5067
RA_OF_ASC_NODE = 292.2305
ARG_OF_PERICENTER = 226.5463
MEAN_ANOMALY   = 133.4912

EPHEMERIS_TYPE = 0
CLASSIFICATION_TYPE = U
NORAD_CAT_ID   = 19210
ELEMENT_SET_NO = 999
REV_AT_EPOCH   = 1741
BSTAR          = .2448E-3
MEAN_MOTION_DOT = .6371E-4
MEAN_MOTION_DDOT = 0

CCSDS_OMM_VERS = 2.0
CREATION_DATE  = 
ORIGINATOR     = 

OBJECT_NAME    = SL-8 R/B
OBJECT_ID      = 1988-053B
CENTER_NAME    = EARTH
REF_FRAME      = TEME
TIME_SYSTEM    = UTC
MEAN_ELEMENT_THEORY = SGP/SGP4

EPOCH          = 2025-10-27T03:57:32.505120
MEAN_MOTION    = 14.38817452
ECCENTRICITY   = .0020732
INCLINATION    = 74.0493
RA_OF_ASC_NODE = 358.5604
ARG_OF_PERICENTER = 215.4721
MEAN_ANOMALY   = 207.2978

EPHEMERIS_TYPE = 0
CLASSIFICATION_TYPE = U
NORAD_CAT_ID   = 19257
ELEMENT_SET_NO = 999
REV_AT_EPOCH   = 95739
BSTAR          = .13291E-3
MEAN_MOTION_DOT = .383E-5
MEAN_MOTION_DDOT = 0

CCSDS_OMM_VERS = 2.0
CREATION_DATE  = 
ORIGINATOR     = 

OBJECT_NAME    = COSMOS 1975
OBJECT_ID      = 1988-093A
CENTER_NAME    = EARTH
REF_FRAME      = TEME
TIME_SYSTEM    = UTC
MEAN_ELEMENT_THEORY = SGP/SGP4

EPOCH          = 2025-10-27T03:45:29.927232
MEAN_MOTION    = 15.25340745
ECCENTRICITY   = .0009384
INCLINATION    = 82.5201
RA_OF_ASC_NODE = 251.4198
ARG_OF_PERICENTER = 286.5228
MEAN_ANOMALY   = 73.4979

EPHEMERIS_TYPE = 0
CLASSIFICATION_TYPE = U
NORAD_CAT_ID   = 19573
ELEMENT_SET_NO = 999
REV_AT_EPOCH   = 99902
BSTAR          = .47114E-3
MEAN_MOTION_DOT = .11925E-3
MEAN_MOTION_DDOT = 0

CCSDS_OMM_VERS = 2.0
CREATION_DATE  = 
ORIGINATOR     = 

OBJECT_NAME    = SL-14 R/B
OBJECT_ID      = 1988-093B
CENTER_NAME    = EARTH
REF_FRAME      = TEME
TIME_SYSTEM    = UTC
MEAN_ELEMENT_THEORY = SGP/SGP4

EPOCH          = 2025-10-27T04:10:55.293312
MEAN_MOTION    = 14.85480909
ECCENTRICITY   = .0022072
INCLINATION    = 82.5321
RA_OF_ASC_NODE = 167.3635
ARG_OF_PERICENTER = 117.8075
MEAN_ANOMALY   = 3.1101

EPHEMERIS_TYPE = 0
CLASSIFICATION_TYPE = U
NORAD_CAT_ID   = 19574
ELEMENT_SET_NO = 999
REV_AT_EPOCH   = 98121
BSTAR          = .71424E-4
MEAN_MOTION_DOT = .643E-5
MEAN_MOTION_DDOT = 0

CCSDS_OMM_VERS = 2.0
CREATION_DATE  = 
ORIGINATOR     = 

OBJECT_NAME    = SL-16 R/B
OBJECT_ID      = 1988-102B
CENTER_NAME    = EARTH
REF_FRAME      = TEME
TIME_SYSTEM    = UTC
MEAN_ELEMENT_THEORY = SGP/SGP4

EPOCH          = 2025-10-27T02:54:35.470368
MEAN_MOTION    = 14.16127438
ECCENTRICITY   = .0015599
INCLINATION    = 70.9992
RA_OF_ASC_NODE = 72.5286
ARG_OF_PERICENTER = 221.0087
MEAN_ANOMALY   = 138.9864

EPHEMERIS_TYPE = 0
CLASSIFICATION_TYPE = U
NORAD_CAT_ID   = 19650
ELEMENT_SET_NO = 999
REV_AT_EPOCH   = 90798
BSTAR          = .19699E-3
MEAN_MOTION_DOT = .342E-5
MEAN_MOTION_DDOT = 0

CCSDS_OMM_VERS = 2.0
CREATION_DATE  = 
ORIGINATOR     = 

OBJECT_NAME    = INTERCOSMOS 24
OBJECT_ID      = 1989-080A
CENTER_NAME    = EARTH
REF_FRAME      = TEME
TIME_SYSTEM    = UTC
MEAN_ELEMENT_THEORY = SGP/SGP4

EPOCH          = 2025-10-26T22:42:51.160608
MEAN_MOTION    = 12.59342587
ECCENTRICITY   = .118753
INCLINATION    = 82.6105
RA_OF_ASC_NODE = 191.3791
ARG_OF_PERICENTER = 243.1079
MEAN_ANOMALY   = 104.3917

EPHEMERIS_TYPE = 0
CLASSIFICATION_TYPE = U
NORAD_CAT_ID   = 20261
ELEMENT_SET_NO = 999
REV_AT_EPOCH   = 64996
BSTAR          = .2308E-3
MEAN_MOTION_DOT = .776E-5
MEAN_MOTION_DDOT = 0

CCSDS_OMM_VERS = 2.0
CREATION_DATE  = 
ORIGINATOR     = 

OBJECT_NAME    = SL-14 R/B
OBJECT_ID      = 1989-080C
CENTER_NAME    = EARTH
REF_FRAME      = TEME
TIME_SYSTEM    = UTC
MEAN_ELEMENT_THEORY = SGP/SGP4

EPOCH          = 2025-10-27T04:14:12.897024
MEAN_MOTION    = 12.50367775
ECCENTRICITY   = .1231457
INCLINATION    = 82.5903
RA_OF_ASC_NODE = 258.9040
ARG_OF_PERICENTER = 129.9351
MEAN_ANOMALY   = 241.6687

EPHEMERIS_TYPE = 0
CLASSIFICATION_TYPE = U
NORAD_CAT_ID   = 20262
ELEMENT_SET_NO = 999
REV_AT_EPOCH   = 64346
BSTAR          = .78894E-4
MEAN_MOTION_DOT = .292E-5
MEAN_MOTION_DDOT = 0

